H1 CPF  1  MCC 2022  3 21 14  5801 larets
H2  0304206 5557    27944 2022 03 20 23 55 00 2022 03 26 00 07 00   180 1 1  0 0 0
H9
10 0 59661 80340.000000 0     -4014844.334     -5612509.992     -1475873.539
10 0 59661 80520.000000 0     -4006983.132     -5118066.954     -2750671.187
10 0 59661 80700.000000 0     -3837630.747     -4439346.256     -3924461.146
10 0 59661 80880.000000 0     -3508733.956     -3605568.780     -4954370.788
10 0 59661 81060.000000 0     -3028879.419     -2651396.515     -5802966.001
10 0 59661 81240.000000 0     -2413049.453     -1615441.404     -6439575.372
10 0 59661 81420.000000 0     -1682116.550      -538670.069     -6841336.797
10 0 59661 81600.000000 0      -862103.115       537225.198     -6993941.641
10 0 59661 81780.000000 0        16755.230      1571421.814     -6892075.435
10 0 59661 81960.000000 0       921113.609      2525482.970     -6539565.534
10 0 59661 82140.000000 0      1815761.182      3364756.690     -5949238.764
10 0 59661 82320.000000 0      2664969.571      4059618.979     -5142482.198
10 0 59661 82500.000000 0      3433899.702      4586519.930     -4148517.469
10 0 59661 82680.000000 0      4090022.014      4928802.964     -3003398.995
10 0 59661 82860.000000 0      4604495.295      5077258.971     -1748750.624
10 0 59661 83040.000000 0      4953438.530      5030384.536      -430275.382
10 0 59661 83220.000000 0      5119032.969      4794327.775       903911.990
10 0 59661 83400.000000 0      5090390.266      4382517.298      2205061.261
10 0 59661 83580.000000 0      4864148.774      3814995.553      3425597.527
10 0 59661 83760.000000 0      4444757.738      3117480.028      4520893.237
10 0 59661 83940.000000 0      3844434.024      2320204.880      5450914.000
10 0 59661 84120.000000 0      3082799.663      1456606.291      6181678.470
10 0 59661 84300.000000 0      2186216.422       561913.398      6686476.314
10 0 59661 84480.000000 0      1186858.261      -328288.732      6946810.833
10 0 59661 84660.000000 0       121553.062     -1179466.392      6953057.406
10 0 59661 84840.000000 0      -969572.425     -1959475.115      6704816.183
10 0 59661 85020.000000 0     -2044597.645     -2639777.645      6210946.084
10 0 59661 85200.000000 0     -3061410.525     -3196499.054      5489285.319
10 0 59661 85380.000000 0     -3979369.763     -3611293.210      4566065.907
10 0 59661 85560.000000 0     -4760967.738     -3871982.909      3475003.272
10 0 59661 85740.000000 0     -5373408.920     -3972939.884      2256088.616
10 0 59661 85920.000000 0     -5790038.657     -3915189.333       954121.362
10 0 59661 86100.000000 0     -5991545.239     -3706224.157      -382975.930
10 0 59661 86280.000000 0     -5966864.566     -3359532.636     -1705985.197
10 0 59662    60.000000 0     -5713732.153     -2893862.565     -2966280.916
10 0 59662   240.000000 0     -5238849.962     -2332263.228     -4117678.492
10 0 59662   420.000000 0     -4557672.191     -1700965.273     -5118157.175
10 0 59662   600.000000 0     -3693830.506     -1028160.807     -5931388.508
10 0 59662   780.000000 0     -2678235.626      -342746.072     -6528014.280
10 0 59662   960.000000 0     -1547908.437       326911.077     -6886637.431
10 0 59662  1140.000000 0      -344596.825       954124.267     -6994511.681
10 0 59662  1320.000000 0       886763.529      1514925.404     -6847930.858
10 0 59662  1500.000000 0      2099700.375      1988955.524     -6452327.812
10 0 59662  1680.000000 0      3247930.208      2360188.570     -5822078.886
10 0 59662  1860.000000 0      4287099.325      2617464.341     -4980011.248
10 0 59662  2040.000000 0      5176487.523      2754816.664     -3956629.251
10 0 59662  2220.000000 0      5880619.336      2771586.258     -2789063.721
10 0 59662  2400.000000 0      6370712.167      2672311.121     -1519768.545
10 0 59662  2580.000000 0      6625897.155      2466395.475      -194996.169
10 0 59662  2760.000000 0      6634142.142      2167566.287      1136895.226
10 0 59662  2940.000000 0      6392823.498      1793142.267      2427230.161
10 0 59662  3120.000000 0      5908921.212      1363155.013      3628825.986
10 0 59662  3300.000000 0      5198816.094       899362.232      4697747.988
10 0 59662  3480.000000 0      4287702.216       424207.704      5594926.369
10 0 59662  3660.000000 0      3208652.329       -40219.622      6287576.466
10 0 59662  3840.000000 0      2001378.023      -473177.990      6750371.271
10 0 59662  4020.000000 0       710749.558      -856171.755      6966338.080
10 0 59662  4200.000000 0      -614878.137     -1173727.911      6927463.675
10 0 59662  4380.000000 0     -1925473.598     -1414019.546      6634986.664
10 0 59662  4560.000000 0     -3171208.242     -1569312.894      6099376.393
10 0 59662  4740.000000 0     -4304354.071     -1636222.436      5340005.113
10 0 59662  4920.000000 0     -5281148.980     -1615771.053      4384502.897
10 0 59662  5100.000000 0     -6063546.899     -1513246.048      3267791.613
10 0 59662  5280.000000 0     -6620771.383     -1337851.779      2030828.233
10 0 59662  5460.000000 0     -6930607.409     -1102176.635       719096.229
10 0 59662  5640.000000 0     -6980353.392      -821496.003      -619113.634
10 0 59662  5820.000000 0     -6767368.763      -512945.676     -1934549.753
10 0 59662  6000.000000 0     -6299188.972      -194612.694     -3178882.902
10 0 59662  6180.000000 0     -5593209.344       115404.582     -4306539.037
10 0 59662  6360.000000 0     -4675953.177       399920.238     -5276398.263
10 0 59662  6540.000000 0     -3581977.157       643517.835     -6053281.370
10 0 59662  6720.000000 0     -2352482.298       833296.647     -6609176.031
10 0 59662  6900.000000 0     -1033706.089       959475.985     -6924173.078
10 0 59662  7080.000000 0       324835.310      1015839.418     -6987104.020
10 0 59662  7260.000000 0      1672187.752      1000004.212     -6795878.928
10 0 59662  7440.000000 0      2957837.334       913510.551     -6357536.140
10 0 59662  7620.000000 0      4133573.513       761729.329     -5687989.925
10 0 59662  7800.000000 0      5155274.423       553590.946     -4811487.265
10 0 59662  7980.000000 0      5984566.414       301145.457     -3759785.070
10 0 59662  8160.000000 0      6590296.764        18968.795     -2571052.966
10 0 59662  8340.000000 0      6949756.219      -276562.556     -1288529.228
10 0 59662  8520.000000 0      7049590.761      -568096.851        41037.555
10 0 59662  8700.000000 0      6886346.940      -838192.087      1369101.506
10 0 59662  8880.000000 0      6466620.439     -1070218.503      2647118.521
10 0 59662  9060.000000 0      5806791.578     -1249230.275      3828355.749
10 0 59662  9240.000000 0      4932359.375     -1362760.127      4869624.840
10 0 59662  9420.000000 0      3876915.986     -1401498.389      5732867.785
10 0 59662  9600.000000 0      2680813.766     -1359819.515      6386536.383
10 0 59662  9780.000000 0      1389589.959     -1236137.308      6806719.927
10 0 59662  9960.000000 0        52216.421     -1033074.327      6977993.253
10 0 59662 10140.000000 0     -1280761.655      -757435.245      6893963.417
10 0 59662 10320.000000 0     -2559128.373      -419985.828      6557507.131
10 0 59662 10500.000000 0     -3734884.820       -35042.022      5980699.603
10 0 59662 10680.000000 0     -4764069.368       380119.190      5184430.276
10 0 59662 10860.000000 0     -5608448.716       806007.990      4197697.719
10 0 59662 11040.000000 0     -6237007.201      1221802.516      3056591.590
10 0 59662 11220.000000 0     -6627164.628      1606326.314      1802988.097
10 0 59662 11400.000000 0     -6765664.131      1939075.522       482998.012
10 0 59662 11580.000000 0     -6649075.476      2201243.933      -854779.138
10 0 59662 11760.000000 0     -6283874.618      2376687.449     -2161114.810
10 0 59662 11940.000000 0     -5686098.357      2452776.544     -3388034.034
10 0 59662 12120.000000 0     -4880590.744      2421090.386     -4490634.310
10 0 59662 12300.000000 0     -3899890.590      2277913.545     -5428748.724
10 0 59662 12480.000000 0     -2782835.173      2024518.309     -6168385.829
10 0 59662 12660.000000 0     -1572960.724      1667226.651     -6682906.243
10 0 59662 12840.000000 0      -316769.779      1217252.352     -6953909.295
10 0 59662 13020.000000 0       938055.279       690335.505     -6971815.319
10 0 59662 13200.000000 0      2144434.490       106187.614     -6736155.775
10 0 59662 13380.000000 0      3257625.190      -512239.646     -6255565.425
10 0 59662 13560.000000 0      4236852.283     -1139637.784     -5547476.973
10 0 59662 13740.000000 0      5046787.900     -1749350.421     -4637529.476
10 0 59662 13920.000000 0      5658840.107     -2314479.578     -3558697.551
10 0 59662 14100.000000 0      6052198.577     -2809046.125     -2350149.054
10 0 59662 14280.000000 0      6214589.225     -3209155.013     -1055857.731
10 0 59662 14460.000000 0      6142696.086     -3494110.528       276985.430
10 0 59662 14640.000000 0      5842225.370     -3647426.565      1599704.204
10 0 59662 14820.000000 0      5327600.617     -3657678.077      2863945.584
10 0 59662 15000.000000 0      4621294.663     -3519142.896      4023480.848
10 0 59662 15180.000000 0      3752842.484     -3232202.571      5035915.991
10 0 59662 15360.000000 0      2757584.949     -2803486.890      5864247.537
10 0 59662 15540.000000 0      1675203.619     -2245751.860      6478201.161
10 0 59662 15720.000000 0       548120.507     -1577501.898      6855310.914
10 0 59662 15900.000000 0      -580171.426      -822373.081      6981713.287
10 0 59662 16080.000000 0     -1666782.762        -8298.021      6852640.412
10 0 59662 16260.000000 0     -2671052.471       833520.497      6472606.273
10 0 59662 16440.000000 0     -3556074.422      1669797.299      5855279.891
10 0 59662 16620.000000 0     -4290077.567      2466476.678      5023042.566
10 0 59662 16800.000000 0     -4847612.907      3190127.050      4006228.344
99
